{
  "type": "FeatureCollection",
  "features": [
    {
      "type": "Feature",
      "properties": {
        "norad_id": 66645,
        "name": "SHENZHOU-22",
        "group": "last-30-days",
        "lat": -8.033158023600855,
        "lon": -96.22697403818854,
        "alt_km": 396.5152053242773,
        "timestamp": "2025-12-03T04:52:28.421952+00:00",
        "meta_object_name": "SHENZHOU-22",
        "meta_object_id": "2025-272A",
        "meta_epoch": "2025-12-02T14:12:45.225504",
        "meta_mean_motion": 15.58538929,
        "meta_eccentricity": 0.00102296,
        "meta_inclination": 41.4674,
        "meta_ra_of_asc_node": 78.2835,
        "meta_arg_of_pericenter": 314.561,
        "meta_mean_anomaly": 45.4392,
        "meta_ephemeris_type": 0,
        "meta_classification_type": "U",
        "meta_norad_cat_id": 66645,
        "meta_element_set_no": 999,
        "meta_rev_at_epoch": 26245,
        "meta_bstar": 0.00035376094,
        "meta_mean_motion_dot": 0.00027659,
        "meta_mean_motion_ddot": 0,
        "tle_line1": "1 66645U 25272A   25336.59219011  .00027659  00000+0  35376-3 0  9997",
        "tle_line2": "2 66645  41.4674  78.2835 0010229 314.5610  45.4392 15.58538929262453"
      },
      "geometry": {
        "type": "Point",
        "coordinates": [
          -96.22697403818854,
          -8.033158023600855
        ]
      }
    },
    {
      "type": "Feature",
      "properties": {
        "norad_id": 66646,
        "name": "CZ-2F R/B",
        "group": "last-30-days",
        "lat": 38.94273521918765,
        "lon": 137.46474789898127,
        "alt_km": 273.54789359704137,
        "timestamp": "2025-12-03T04:52:28.421962+00:00",
        "meta_object_name": "CZ-2F R/B",
        "meta_object_id": "2025-272B",
        "meta_epoch": "2025-11-26T11:17:54.506400",
        "meta_mean_motion": 16.01945612,
        "meta_eccentricity": 0.01210796,
        "meta_inclination": 41.4431,
        "meta_ra_of_asc_node": 114.9009,
        "meta_arg_of_pericenter": 133.7676,
        "meta_mean_anomaly": 227.3272,
        "meta_ephemeris_type": 0,
        "meta_classification_type": "U",
        "meta_norad_cat_id": 66646,
        "meta_element_set_no": 999,
        "meta_rev_at_epoch": 21,
        "meta_bstar": 0.00029319366,
        "meta_mean_motion_dot": 0.00449059,
        "meta_mean_motion_ddot": 7.567612e-06,
        "tle_line1": "1 66646U 25272B   25330.47076975  .00449059  75676-5  29319-3 0  9998",
        "tle_line2": "2 66646  41.4431 114.9009 0121079 133.7676 227.3272 16.01945612   217"
      },
      "geometry": {
        "type": "Point",
        "coordinates": [
          137.46474789898127,
          38.94273521918765
        ]
      }
    },
    {
      "type": "Feature",
      "properties": {
        "norad_id": 66647,
        "name": "COSMOS 2597 (RODNIK-S 22)",
        "group": "last-30-days",
        "lat": -28.622140588599713,
        "lon": -71.75136580493175,
        "alt_km": 1497.9350155816892,
        "timestamp": "2025-12-03T04:52:28.421973+00:00",
        "meta_object_name": "COSMOS 2597 (RODNIK-S 22)",
        "meta_object_id": "2025-273A",
        "meta_epoch": "2025-12-02T21:17:45.733632",
        "meta_mean_motion": 12.41951063,
        "meta_eccentricity": 0.0008155,
        "meta_inclination": 82.4981,
        "meta_ra_of_asc_node": 292.5679,
        "meta_arg_of_pericenter": 312.2306,
        "meta_mean_anomaly": 47.808,
        "meta_ephemeris_type": 0,
        "meta_classification_type": "U",
        "meta_norad_cat_id": 66647,
        "meta_element_set_no": 999,
        "meta_rev_at_epoch": 91,
        "meta_bstar": -8.3282e-06,
        "meta_mean_motion_dot": 9e-08,
        "meta_mean_motion_ddot": 0,
        "tle_line1": "1 66647U 25273A   25336.88733488  .00000009  00000+0 -83282-5 0  9993",
        "tle_line2": "2 66647  82.4981 292.5679 0008155 312.2306  47.8080 12.41951063   918"
      },
      "geometry": {
        "type": "Point",
        "coordinates": [
          -71.75136580493175,
          -28.622140588599713
        ]
      }
    },
    {
      "type": "Feature",
      "properties": {
        "norad_id": 66648,
        "name": "COSMOS 2598 (RODNIK-S 23)",
        "group": "last-30-days",
        "lat": -20.480707853513515,
        "lon": -70.44149558598247,
        "alt_km": 1497.0165784785668,
        "timestamp": "2025-12-03T04:52:28.421983+00:00",
        "meta_object_name": "COSMOS 2598 (RODNIK-S 23)",
        "meta_object_id": "2025-273B",
        "meta_epoch": "2025-12-02T21:15:13.548672",
        "meta_mean_motion": 12.42253007,
        "meta_eccentricity": 0.0008238,
        "meta_inclination": 82.5022,
        "meta_ra_of_asc_node": 292.5748,
        "meta_arg_of_pericenter": 300.8575,
        "meta_mean_anomaly": 59.1694,
        "meta_ephemeris_type": 0,
        "meta_classification_type": "U",
        "meta_norad_cat_id": 66648,
        "meta_element_set_no": 999,
        "meta_rev_at_epoch": 91,
        "meta_bstar": -0.00012614,
        "meta_mean_motion_dot": -8e-08,
        "meta_mean_motion_ddot": 0,
        "tle_line1": "1 66648U 25273B   25336.88557348 -.00000008  00000+0 -12614-3 0  9992",
        "tle_line2": "2 66648  82.5022 292.5748 0008238 300.8575  59.1694 12.42253007   917"
      },
      "geometry": {
        "type": "Point",
        "coordinates": [
          -70.44149558598247,
          -20.480707853513515
        ]
      }
    },
    {
      "type": "Feature",
      "properties": {
        "norad_id": 66649,
        "name": "COSMOS 2599 (RODNIK-S 24)",
        "group": "last-30-days",
        "lat": -36.137499080366,
        "lon": -73.13514489048515,
        "alt_km": 1499.0672109068046,
        "timestamp": "2025-12-03T04:52:28.421995+00:00",
        "meta_object_name": "COSMOS 2599 (RODNIK-S 24)",
        "meta_object_id": "2025-273C",
        "meta_epoch": "2025-12-02T21:20:06.499104",
        "meta_mean_motion": 12.41671811,
        "meta_eccentricity": 0.0008377,
        "meta_inclination": 82.5022,
        "meta_ra_of_asc_node": 292.5776,
        "meta_arg_of_pericenter": 322.5269,
        "meta_mean_anomaly": 37.5225,
        "meta_ephemeris_type": 0,
        "meta_classification_type": "U",
        "meta_norad_cat_id": 66649,
        "meta_element_set_no": 999,
        "meta_rev_at_epoch": 91,
        "meta_bstar": -1.8507e-05,
        "meta_mean_motion_dot": 7e-08,
        "meta_mean_motion_ddot": 0,
        "tle_line1": "1 66649U 25273C   25336.88896411  .00000007  00000+0 -18507-4 0  9996",
        "tle_line2": "2 66649  82.5022 292.5776 0008377 322.5269  37.5225 12.41671811   910"
      },
      "geometry": {
        "type": "Point",
        "coordinates": [
          -73.13514489048515,
          -36.137499080366
        ]
      }
    },
    {
      "type": "Feature",
      "properties": {
        "norad_id": 66650,
        "name": "2025-274A",
        "group": "last-30-days",
        "lat": -52.1649855547295,
        "lon": 74.48364509359875,
        "alt_km": 595.802021582871,
        "timestamp": "2025-12-03T04:52:28.422006+00:00",
        "meta_object_name": "2025-274A",
        "meta_object_id": "2025-274A",
        "meta_epoch": "2025-12-02T18:10:23.418336",
        "meta_mean_motion": 14.91604403,
        "meta_eccentricity": 0.0010438,
        "meta_inclination": 97.738,
        "meta_ra_of_asc_node": 264.1291,
        "meta_arg_of_pericenter": 289.935,
        "meta_mean_anomaly": 70.0744,
        "meta_ephemeris_type": 0,
        "meta_classification_type": "U",
        "meta_norad_cat_id": 66650,
        "meta_element_set_no": 999,
        "meta_rev_at_epoch": 91,
        "meta_bstar": 0.000295,
        "meta_mean_motion_dot": 2.908e-05,
        "meta_mean_motion_ddot": 0,
        "tle_line1": "1 66650U 25274A   25336.75721549  .00002908  00000+0  29500-3 0  9999",
        "tle_line2": "2 66650  97.7380 264.1291 0010438 289.9350  70.0744 14.91604403   910"
      },
      "geometry": {
        "type": "Point",
        "coordinates": [
          74.48364509359875,
          -52.1649855547295
        ]
      }
    },
    {
      "type": "Feature",
      "properties": {
        "norad_id": 66651,
        "name": "2025-274B",
        "group": "last-30-days",
        "lat": -53.48896442393351,
        "lon": 73.98321966905215,
        "alt_km": 595.3030534582413,
        "timestamp": "2025-12-03T04:52:28.422018+00:00",
        "meta_object_name": "2025-274B",
        "meta_object_id": "2025-274B",
        "meta_epoch": "2025-12-02T18:10:03.249120",
        "meta_mean_motion": 14.91673214,
        "meta_eccentricity": 0.0010747,
        "meta_inclination": 97.7375,
        "meta_ra_of_asc_node": 264.1291,
        "meta_arg_of_pericenter": 289.5159,
        "meta_mean_anomaly": 70.4898,
        "meta_ephemeris_type": 0,
        "meta_classification_type": "U",
        "meta_norad_cat_id": 66651,
        "meta_element_set_no": 999,
        "meta_rev_at_epoch": 91,
        "meta_bstar": 0.0005491,
        "meta_mean_motion_dot": 5.472e-05,
        "meta_mean_motion_ddot": 0,
        "tle_line1": "1 66651U 25274B   25336.75698205  .00005472  00000+0  54910-3 0  9994",
        "tle_line2": "2 66651  97.7375 264.1291 0010747 289.5159  70.4898 14.91673214   911"
      },
      "geometry": {
        "type": "Point",
        "coordinates": [
          73.98321966905215,
          -53.48896442393351
        ]
      }
    }
  ]
}